STARLINK-11172 [DTC]    
1 60193U 24124L   25321.38183514  .00014245  00000+0  12221-3 0  9994
2 60193  53.1575 354.9826 0000999  94.7627 265.3505 15.69715721 78898
STARLINK-11152 [DTC]    
1 60194U 24124M   25321.50426920  .00020683  00000+0  17506-3 0  9994
2 60194  53.1567 354.3191 0001322  99.7253 260.3914 15.69721825 80108
STARLINK-11193 [DTC]    
1 60195U 24124N   25321.37202050  .00026330  00000+0  22126-3 0  9995
2 60195  53.1579 354.9149 0001506 140.1915 219.9214 15.69735063 78896
STARLINK-31869          
1 60196U 24124P   25321.19627908 -.00001959  00000+0 -54043-4 0  9995
2 60196  53.1614 124.9328 0001463  87.2363 272.8805 15.30192119 77071
STARLINK-32023          
1 60197U 24124Q   25321.49235252 -.00001321  00000+0 -32482-4 0  9992
2 60197  53.1596 123.9362 0001458  83.1906 276.9260 15.30199328 77114
STARLINK-32046          
1 60198U 24124R   25320.88129880  .00001417  00000+0  59957-4 0  9994
2 60198  53.1586 126.5197 0001667 108.2284 251.8898 15.30208740 78253
STARLINK-32049          
1 60199U 24124S   25321.48283066 -.00012919  00000+0 -42363-3 0  9992
2 60199  53.1668 123.8723 0001038  56.6560 303.4540 15.30288197 78347
STARLINK-32002          
1 60200U 24124T   25321.47019111  .00000305  00000+0  22434-4 0  9994
2 60200  53.1588 123.7966 0001178  79.8125 280.3008 15.30196183 77117
STARLINK-32020          
1 60201U 24124U   25321.44277317 -.00002019  00000+0 -56083-4 0  9999
2 60201  53.1606 123.6198 0000636  70.8268 289.2801 15.30186896 77111
STARLINK-32041          
1 60202U 24124V   25321.46702867 -.00000164  00000+0  65950-5 0  9997
2 60202  53.1583 123.7733 0001862  81.4835 278.6377 15.30196746 78310
STARLINK-32138          
1 60255U 24131A   25321.00114696 -.00001577  00000+0 -41124-4 0  9996
2 60255  53.1600 215.9920 0001141  76.8140 283.2988 15.30193290 74763
STARLINK-32212          
1 60256U 24131B   25320.94849515 -.00000237  00000+0  41267-5 0  9994
2 60256  53.1606 216.3869 0001158  93.2317 266.8817 15.30192402 74452
STARLINK-32166          
1 60257U 24131C   25321.02014191 -.00000487  00000+0 -43100-5 0  9995
2 60257  53.1605 216.1075 0001280 104.4790 255.6353 15.30189633 74469
STARLINK-32200          
1 60258U 24131D   25321.40358036  .00001363  00000+0  58124-4 0  9990
2 60258  53.1596 214.2386 0001313  78.5453 281.5695 15.30199162 74529
STARLINK-32207          
1 60259U 24131E   25321.40146985 -.00003541  00000+0 -10746-3 0  9998
2 60259  53.1614 214.2375 0001241  89.7106 270.4037 15.30208820 74527
STARLINK-32125          
1 60260U 24131F   25321.02424522 -.00000680  00000+0 -10840-4 0  9991
2 60260  53.1596 215.4211 0001075  92.2554 267.8570 15.30188252 74473
