[{"OBJECT_NAME":"STARLINK-11172 [DTC]","OBJECT_ID":"2024-124L","EPOCH":"2025-11-17T09:09:50.556096","MEAN_MOTION":15.69715721,"ECCENTRICITY":9.99e-5,"INCLINATION":53.1575,"RA_OF_ASC_NODE":354.9826,"ARG_OF_PERICENTER":94.7627,"MEAN_ANOMALY":265.3505,"EPHEMERIS_TYPE":0,"CLASSIFICATION_TYPE":"U","NORAD_CAT_ID":60193,"ELEMENT_SET_NO":999,"REV_AT_EPOCH":7889,"BSTAR":0.00012221,"MEAN_MOTION_DOT":0.00014245,"MEAN_MOTION_DDOT":0},{"OBJECT_NAME":"STARLINK-11152 [DTC]","OBJECT_ID":"2024-124M","EPOCH":"2025-11-17T12:06:08.858880","MEAN_MOTION":15.69721825,"ECCENTRICITY":0.0001322,"INCLINATION":53.1567,"RA_OF_ASC_NODE":354.3191,"ARG_OF_PERICENTER":99.7253,"MEAN_ANOMALY":260.3914,"EPHEMERIS_TYPE":0,"CLASSIFICATION_TYPE":"U","NORAD_CAT_ID":60194,"ELEMENT_SET_NO":999,"REV_AT_EPOCH":8010,"BSTAR":0.00017506,"MEAN_MOTION_DOT":0.00020683,"MEAN_MOTION_DDOT":0},{"OBJECT_NAME":"STARLINK-11193 [DTC]","OBJECT_ID":"2024-124N","EPOCH":"2025-11-17T08:55:42.571200","MEAN_MOTION":15.69735063,"ECCENTRICITY":0.0001506,"INCLINATION":53.1579,"RA_OF_ASC_NODE":354.9149,"ARG_OF_PERICENTER":140.1915,"MEAN_ANOMALY":219.9214,"EPHEMERIS_TYPE":0,"CLASSIFICATION_TYPE":"U","NORAD_CAT_ID":60195,"ELEMENT_SET_NO":999,"REV_AT_EPOCH":7889,"BSTAR":0.00022126,"MEAN_MOTION_DOT":0.0002633,"MEAN_MOTION_DDOT":0},{"OBJECT_NAME":"STARLINK-31869","OBJECT_ID":"2024-124P","EPOCH":"2025-11-17T04:42:38.512512","MEAN_MOTION":15.30192119,"ECCENTRICITY":0.00014632,"INCLINATION":53.1614,"RA_OF_ASC_NODE":124.9328,"ARG_OF_PERICENTER":87.2363,"MEAN_ANOMALY":272.8805,"EPHEMERIS_TYPE":0,"CLASSIFICATION_TYPE":"U","NORAD_CAT_ID":60196,"ELEMENT_SET_NO":999,"REV_AT_EPOCH":7707,"BSTAR":-5.4043234e-5,"MEAN_MOTION_DOT":-1.959e-5,"MEAN_MOTION_DDOT":0},{"OBJECT_NAME":"STARLINK-32023","OBJECT_ID":"2024-124Q","EPOCH":"2025-11-17T11:48:59.257728","MEAN_MOTION":15.30199328,"ECCENTRICITY":0.0001458,"INCLINATION":53.1596,"RA_OF_ASC_NODE":123.9362,"ARG_OF_PERICENTER":83.1906,"MEAN_ANOMALY":276.926,"EPHEMERIS_TYPE":0,"CLASSIFICATION_TYPE":"U","NORAD_CAT_ID":60197,"ELEMENT_SET_NO":999,"REV_AT_EPOCH":7711,"BSTAR":-3.2482e-5,"MEAN_MOTION_DOT":-1.321e-5,"MEAN_MOTION_DDOT":0},{"OBJECT_NAME":"STARLINK-32046","OBJECT_ID":"2024-124R","EPOCH":"2025-11-16T21:09:04.216320","MEAN_MOTION":15.3020874,"ECCENTRICITY":0.00016674,"INCLINATION":53.1586,"RA_OF_ASC_NODE":126.5197,"ARG_OF_PERICENTER":108.2284,"MEAN_ANOMALY":251.8898,"EPHEMERIS_TYPE":0,"CLASSIFICATION_TYPE":"U","NORAD_CAT_ID":60198,"ELEMENT_SET_NO":999,"REV_AT_EPOCH":7825,"BSTAR":5.9957395e-5,"MEAN_MOTION_DOT":1.417e-5,"MEAN_MOTION_DDOT":0},{"OBJECT_NAME":"STARLINK-32049","OBJECT_ID":"2024-124S","EPOCH":"2025-11-17T11:35:16.569024","MEAN_MOTION":15.30288197,"ECCENTRICITY":0.0001038,"INCLINATION":53.1668,"RA_OF_ASC_NODE":123.8723,"ARG_OF_PERICENTER":56.656,"MEAN_ANOMALY":303.454,"EPHEMERIS_TYPE":0,"CLASSIFICATION_TYPE":"U","NORAD_CAT_ID":60199,"ELEMENT_SET_NO":999,"REV_AT_EPOCH":7834,"BSTAR":-0.00042363,"MEAN_MOTION_DOT":-0.00012919,"MEAN_MOTION_DDOT":0},{"OBJECT_NAME":"STARLINK-32002","OBJECT_ID":"2024-124T","EPOCH":"2025-11-17T11:17:04.511904","MEAN_MOTION":15.30196183,"ECCENTRICITY":0.0001178,"INCLINATION":53.1588,"RA_OF_ASC_NODE":123.7966,"ARG_OF_PERICENTER":79.8125,"MEAN_ANOMALY":280.3008,"EPHEMERIS_TYPE":0,"CLASSIFICATION_TYPE":"U","NORAD_CAT_ID":60200,"ELEMENT_SET_NO":999,"REV_AT_EPOCH":7711,"BSTAR":2.2434e-5,"MEAN_MOTION_DOT":3.05e-6,"MEAN_MOTION_DDOT":0},{"OBJECT_NAME":"STARLINK-32020","OBJECT_ID":"2024-124U","EPOCH":"2025-11-17T10:37:35.601888","MEAN_MOTION":15.30186896,"ECCENTRICITY":6.36e-5,"INCLINATION":53.1606,"RA_OF_ASC_NODE":123.6198,"ARG_OF_PERICENTER":70.8268,"MEAN_ANOMALY":289.2801,"EPHEMERIS_TYPE":0,"CLASSIFICATION_TYPE":"U","NORAD_CAT_ID":60201,"ELEMENT_SET_NO":999,"REV_AT_EPOCH":7711,"BSTAR":-5.6083e-5,"MEAN_MOTION_DOT":-2.019e-5,"MEAN_MOTION_DDOT":0},{"OBJECT_NAME":"STARLINK-32041","OBJECT_ID":"2024-124V","EPOCH":"2025-11-17T11:12:31.277088","MEAN_MOTION":15.30196746,"ECCENTRICITY":0.0001862,"INCLINATION":53.1583,"RA_OF_ASC_NODE":123.7733,"ARG_OF_PERICENTER":81.4835,"MEAN_ANOMALY":278.6377,"EPHEMERIS_TYPE":0,"CLASSIFICATION_TYPE":"U","NORAD_CAT_ID":60202,"ELEMENT_SET_NO":999,"REV_AT_EPOCH":7831,"BSTAR":6.595e-6,"MEAN_MOTION_DOT":-1.64e-6,"MEAN_MOTION_DDOT":0},{"OBJECT_NAME":"STARLINK-32138","OBJECT_ID":"2024-131A","EPOCH":"2025-11-17T00:01:39.097344","MEAN_MOTION":15.3019329,"ECCENTRICITY":0.00011417,"INCLINATION":53.16,"RA_OF_ASC_NODE":215.992,"ARG_OF_PERICENTER":76.814,"MEAN_ANOMALY":283.2988,"EPHEMERIS_TYPE":0,"CLASSIFICATION_TYPE":"U","NORAD_CAT_ID":60255,"ELEMENT_SET_NO":999,"REV_AT_EPOCH":7476,"BSTAR":-4.1124046e-5,"MEAN_MOTION_DOT":-1.577e-5,"MEAN_MOTION_DDOT":0},{"OBJECT_NAME":"STARLINK-32212","OBJECT_ID":"2024-131B","EPOCH":"2025-11-16T22:45:49.980960","MEAN_MOTION":15.30192402,"ECCENTRICITY":0.00011586,"INCLINATION":53.1606,"RA_OF_ASC_NODE":216.3869,"ARG_OF_PERICENTER":93.2317,"MEAN_ANOMALY":266.8817,"EPHEMERIS_TYPE":0,"CLASSIFICATION_TYPE":"U","NORAD_CAT_ID":60256,"ELEMENT_SET_NO":999,"REV_AT_EPOCH":7445,"BSTAR":4.126697e-6,"MEAN_MOTION_DOT":-2.37e-6,"MEAN_MOTION_DDOT":0},{"OBJECT_NAME":"STARLINK-32166","OBJECT_ID":"2024-131C","EPOCH":"2025-11-17T00:29:00.261024","MEAN_MOTION":15.30189633,"ECCENTRICITY":0.00012809,"INCLINATION":53.1605,"RA_OF_ASC_NODE":216.1075,"ARG_OF_PERICENTER":104.479,"MEAN_ANOMALY":255.6353,"EPHEMERIS_TYPE":0,"CLASSIFICATION_TYPE":"U","NORAD_CAT_ID":60257,"ELEMENT_SET_NO":999,"REV_AT_EPOCH":7446,"BSTAR":-4.310026e-6,"MEAN_MOTION_DOT":-4.87e-6,"MEAN_MOTION_DDOT":0},{"OBJECT_NAME":"STARLINK-32200","OBJECT_ID":"2024-131D","EPOCH":"2025-11-17T09:41:09.343104","MEAN_MOTION":15.30199162,"ECCENTRICITY":0.0001313,"INCLINATION":53.1596,"RA_OF_ASC_NODE":214.2386,"ARG_OF_PERICENTER":78.5453,"MEAN_ANOMALY":281.5695,"EPHEMERIS_TYPE":0,"CLASSIFICATION_TYPE":"U","NORAD_CAT_ID":60258,"ELEMENT_SET_NO":999,"REV_AT_EPOCH":7452,"BSTAR":5.8124e-5,"MEAN_MOTION_DOT":1.363e-5,"MEAN_MOTION_DDOT":0},{"OBJECT_NAME":"STARLINK-32207","OBJECT_ID":"2024-131E","EPOCH":"2025-11-17T09:38:06.995040","MEAN_MOTION":15.3020882,"ECCENTRICITY":0.0001241,"INCLINATION":53.1614,"RA_OF_ASC_NODE":214.2375,"ARG_OF_PERICENTER":89.7106,"MEAN_ANOMALY":270.4037,"EPHEMERIS_TYPE":0,"CLASSIFICATION_TYPE":"U","NORAD_CAT_ID":60259,"ELEMENT_SET_NO":999,"REV_AT_EPOCH":7452,"BSTAR":-0.00010746,"MEAN_MOTION_DOT":-3.541e-5,"MEAN_MOTION_DDOT":0},{"OBJECT_NAME":"STARLINK-32125","OBJECT_ID":"2024-131F","EPOCH":"2025-11-17T00:34:54.787008","MEAN_MOTION":15.30188252,"ECCENTRICITY":0.00010752,"INCLINATION":53.1596,"RA_OF_ASC_NODE":215.4211,"ARG_OF_PERICENTER":92.2554,"MEAN_ANOMALY":267.857,"EPHEMERIS_TYPE":0,"CLASSIFICATION_TYPE":"U","NORAD_CAT_ID":60260,"ELEMENT_SET_NO":999,"REV_AT_EPOCH":7447,"BSTAR":-1.0840351e-5,"MEAN_MOTION_DOT":-6.8e-6,"MEAN_MOTION_DDOT":0}]
